{"type": "FeatureCollection", "features": [ {"type": "Feature", "properties": {"norad_id": 66644, "name": "STARLINK-35938", "group": "last-30-days", "lat": -29.945480528111155, "lon": 66.68286092197444, "alt_km": 319.33413485102665, "timestamp": "2025-12-05T18:53:12.098162+00:00", "meta": {"OBJECT_NAME": "STARLINK-35938", "OBJECT_ID": "2025-271AD", "EPOCH": "2025-12-04T22:15:39.970080", "MEAN_MOTION": 15.81826433, "ECCENTRICITY": 0.0012965, "INCLINATION": 53.1553, "RA_OF_ASC_NODE": 225.4081, "ARG_OF_PERICENTER": 257.2448, "MEAN_ANOMALY": 102.7126, "EPHEMERIS_TYPE": 0, "CLASSIFICATION_TYPE": "U", "NORAD_CAT_ID": 66644, "ELEMENT_SET_NO": 999, "REV_AT_EPOCH": 298, "BSTAR": 0.0033361, "MEAN_MOTION_DOT": 0.007529, "MEAN_MOTION_DDOT": 0}, "tle": {"line1": "1 66644U 25271AD  25338.92754595  .00752900  00000+0  33361-2 0  9990", "line2": "2 66644  53.1553 225.4081 0012965 257.2448 102.7126 15.81826433  2986"}}, "geometry": {"type": "Point", "coordinates": [66.68286092197444, -29.945480528111155]}}, {"type": "Feature", "properties": {"norad_id": 66645, "name": "SHENZHOU-22", "group": "last-30-days", "lat": -30.794178962093344, "lon": 16.458057785432324, "alt_km": 387.93721133752115, "timestamp": "2025-12-05T18:53:12.098174+00:00", "meta": {"OBJECT_NAME": "SHENZHOU-22", "OBJECT_ID": "2025-272A", "EPOCH": "2025-12-05T06:48:03.993120", "MEAN_MOTION": 15.5871605, "ECCENTRICITY": 0.00098342, "INCLINATION": 41.4682, "RA_OF_ASC_NODE": 61.9587, "ARG_OF_PERICENTER": 333.0075, "MEAN_ANOMALY": 27.0251, "EPHEMERIS_TYPE": 0, "CLASSIFICATION_TYPE": "U", "NORAD_CAT_ID": 66645, "ELEMENT_SET_NO": 999, "REV_AT_EPOCH": 26289, "BSTAR": 0.00043162186, "MEAN_MOTION_DOT": 0.00034071, "MEAN_MOTION_DDOT": 0}, "tle": {"line1": "1 66645U 25272A   25339.28337955  .00034071  00000+0  43162-3 0  9992", "line2": "2 66645  41.4682  61.9587 0009834 333.0075  27.0251 15.58716050262897"}}, "geometry": {"type": "Point", "coordinates": [16.458057785432324, -30.794178962093344]}}, {"type": "Feature", "properties": {"norad_id": 66646, "name": "CZ-2F R/B", "group": "last-30-days", "lat": -33.82303870948734, "lon": 4.808687617541005, "alt_km": 254.79766407743227, "timestamp": "2025-12-05T18:53:12.098184+00:00", "meta": {"OBJECT_NAME": "CZ-2F R/B", "OBJECT_ID": "2025-272B", "EPOCH": "2025-11-26T11:17:54.506400", "MEAN_MOTION": 16.01945612, "ECCENTRICITY": 0.01210796, "INCLINATION": 41.4431, "RA_OF_ASC_NODE": 114.9009, "ARG_OF_PERICENTER": 133.7676, "MEAN_ANOMALY": 227.3272, "EPHEMERIS_TYPE": 0, "CLASSIFICATION_TYPE": "U", "NORAD_CAT_ID": 66646, "ELEMENT_SET_NO": 999, "REV_AT_EPOCH": 21, "BSTAR": 0.00029319366, "MEAN_MOTION_DOT": 0.00449059, "MEAN_MOTION_DDOT": 7.567612e-06}, "tle": {"line1": "1 66646U 25272B   25330.47076975  .00449059  75676-5  29319-3 0  9998", "line2": "2 66646  41.4431 114.9009 0121079 133.7676 227.3272 16.01945612   217"}}, "geometry": {"type": "Point", "coordinates": [4.808687617541005, -33.82303870948734]}}, {"type": "Feature", "properties": {"norad_id": 66647, "name": "COSMOS 2597 (RODNIK-S 22)", "group": "last-30-days", "lat": -2.0616630815359422, "lon": -69.50470851193748, "alt_km": 1497.4203162534786, "timestamp": "2025-12-05T18:53:12.098194+00:00", "meta": {"OBJECT_NAME": "COSMOS 2597 (RODNIK-S 22)", "OBJECT_ID": "2025-273A", "EPOCH": "2025-12-05T07:17:51.167616", "MEAN_MOTION": 12.41951079, "ECCENTRICITY": 0.00080713, "INCLINATION": 82.4983, "RA_OF_ASC_NODE": 291.0668, "ARG_OF_PERICENTER": 306.7254, "MEAN_ANOMALY": 53.3083, "EPHEMERIS_TYPE": 0, "CLASSIFICATION_TYPE": "U", "NORAD_CAT_ID": 66647, "ELEMENT_SET_NO": 999, "REV_AT_EPOCH": 121, "BSTAR": -4.5564816e-05, "MEAN_MOTION_DOT": 4e-08, "MEAN_MOTION_DDOT": 0}, "tle": {"line1": "1 66647U 25273A   25339.30406444  .00000004  00000+0 -45565-4 0  9998", "line2": "2 66647  82.4983 291.0668 0008071 306.7254  53.3083 12.41951079  1215"}}, "geometry": {"type": "Point", "coordinates": [-69.50470851193748, -2.0616630815359422]}}, {"type": "Feature", "properties": {"norad_id": 66648, "name": "COSMOS 2598 (RODNIK-S 23)", "group": "last-30-days", "lat": 8.874200517775648, "lon": -68.04891241588153, "alt_km": 1496.8422813143588, "timestamp": "2025-12-05T18:53:12.098204+00:00", "meta": {"OBJECT_NAME": "COSMOS 2598 (RODNIK-S 23)", "OBJECT_ID": "2025-273B", "EPOCH": "2025-12-04T06:06:47.884896", "MEAN_MOTION": 12.42253119, "ECCENTRICITY": 0.0008196, "INCLINATION": 82.5023, "RA_OF_ASC_NODE": 291.7242, "ARG_OF_PERICENTER": 297.6387, "MEAN_ANOMALY": 62.386, "EPHEMERIS_TYPE": 0, "CLASSIFICATION_TYPE": "U", "NORAD_CAT_ID": 66648, "ELEMENT_SET_NO": 999, "REV_AT_EPOCH": 108, "BSTAR": -2.072e-05, "MEAN_MOTION_DOT": 7e-08, "MEAN_MOTION_DDOT": 0}, "tle": {"line1": "1 66648U 25273B   25338.25472089  .00000007  00000+0 -20720-4 0  9999", "line2": "2 66648  82.5023 291.7242 0008196 297.6387  62.3860 12.42253119  1089"}}, "geometry": {"type": "Point", "coordinates": [-68.04891241588153, 8.874200517775648]}}, {"type": "Feature", "properties": {"norad_id": 66649, "name": "COSMOS 2599 (RODNIK-S 24)", "group": "last-30-days", "lat": -12.176650194823827, "lon": -70.84844331221508, "alt_km": 1498.1186792115577, "timestamp": "2025-12-05T18:53:12.098214+00:00", "meta": {"OBJECT_NAME": "COSMOS 2599 (RODNIK-S 24)", "OBJECT_ID": "2025-273C", "EPOCH": "2025-12-05T07:20:58.861248", "MEAN_MOTION": 12.41671807, "ECCENTRICITY": 0.00083078, "INCLINATION": 82.5023, "RA_OF_ASC_NODE": 291.0779, "ARG_OF_PERICENTER": 316.9576, "MEAN_ANOMALY": 43.0853, "EPHEMERIS_TYPE": 0, "CLASSIFICATION_TYPE": "U", "NORAD_CAT_ID": 66649, "ELEMENT_SET_NO": 999, "REV_AT_EPOCH": 121, "BSTAR": -1.6317304e-05, "MEAN_MOTION_DOT": 8e-08, "MEAN_MOTION_DDOT": 0}, "tle": {"line1": "1 66649U 25273C   25339.30623682  .00000008  00000+0 -16317-4 0  9992", "line2": "2 66649  82.5023 291.0779 0008307 316.9576  43.0853 12.41671807  1217"}}, "geometry": {"type": "Point", "coordinates": [-70.84844331221508, -12.176650194823827]}}, {"type": "Feature", "properties": {"norad_id": 66650, "name": "2025-274A", "group": "last-30-days", "lat": 58.20228289916129, "lon": -105.56800946728944, "alt_km": 592.8689620347977, "timestamp": "2025-12-05T18:53:12.098226+00:00", "meta": {"OBJECT_NAME": "2025-274A", "OBJECT_ID": "2025-274A", "EPOCH": "2025-12-05T07:21:10.074240", "MEAN_MOTION": 14.91621889, "ECCENTRICITY": 0.00104221, "INCLINATION": 97.7388, "RA_OF_ASC_NODE": 266.6309, "ARG_OF_PERICENTER": 280.3247, "MEAN_ANOMALY": 79.6797, "EPHEMERIS_TYPE": 0, "CLASSIFICATION_TYPE": "U", "NORAD_CAT_ID": 66650, "ELEMENT_SET_NO": 999, "REV_AT_EPOCH": 129, "BSTAR": 0.00032210359, "MEAN_MOTION_DOT": 3.181e-05, "MEAN_MOTION_DDOT": 0}, "tle": {"line1": "1 66650U 25274A   25339.30636660  .00003181  00000+0  32210-3 0  9998", "line2": "2 66650  97.7388 266.6309 0010422 280.3247  79.6797 14.91621889  1290"}}, "geometry": {"type": "Point", "coordinates": [-105.56800946728944, 58.20228289916129]}}, {"type": "Feature", "properties": {"norad_id": 66651, "name": "2025-274B", "group": "last-30-days", "lat": 60.25160854362069, "lon": -106.66201037678856, "alt_km": 592.7125905990961, "timestamp": "2025-12-05T18:53:12.098236+00:00", "meta": {"OBJECT_NAME": "2025-274B", "OBJECT_ID": "2025-274B", "EPOCH": "2025-12-05T07:20:38.363712", "MEAN_MOTION": 14.91710922, "ECCENTRICITY": 0.00106956, "INCLINATION": 97.7386, "RA_OF_ASC_NODE": 266.6308, "ARG_OF_PERICENTER": 279.7009, "MEAN_ANOMALY": 80.3002, "EPHEMERIS_TYPE": 0, "CLASSIFICATION_TYPE": "U", "NORAD_CAT_ID": 66651, "ELEMENT_SET_NO": 999, "REV_AT_EPOCH": 129, "BSTAR": 0.00068570235, "MEAN_MOTION_DOT": 6.855e-05, "MEAN_MOTION_DDOT": 0}, "tle": {"line1": "1 66651U 25274B   25339.30599958  .00006855  00000+0  68570-3 0  9996", "line2": "2 66651  97.7386 266.6308 0010695 279.7009  80.3002 14.91710922  1293"}}, "geometry": {"type": "Point", "coordinates": [-106.66201037678856, 60.25160854362069]}}, {"type": "Feature", "properties": {"norad_id": 66652, "name": "2025-274C", "group": "last-30-days", "lat": 64.8479761910428, "lon": -109.7299819638832, "alt_km": 591.5376185086434, "timestamp": "2025-12-05T18:53:12.098250+00:00", "meta": {"OBJECT_NAME": "2025-274C", "OBJECT_ID": "2025-274C", "EPOCH": "2025-12-05T07:19:24.887424", "MEAN_MOTION": 14.91843597, "ECCENTRICITY": 0.00104699, "INCLINATION": 97.739, "RA_OF_ASC_NODE": 266.6325, "ARG_OF_PERICENTER": 286.5271, "MEAN_ANOMALY": 73.4797, "EPHEMERIS_TYPE": 0, "CLASSIFICATION_TYPE": "U", "NORAD_CAT_ID": 66652, "ELEMENT_SET_NO": 999, "REV_AT_EPOCH": 129, "BSTAR": 0.00045957845, "MEAN_MOTION_DOT": 4.59e-05, "MEAN_MOTION_DDOT": 0}, "tle": {"line1": "1 66652U 25274C   25339.30514916  .00004590  00000+0  45958-3 0  9997", "line2": "2 66652  97.7390 266.6325 0010469 286.5271  73.4797 14.91843597  1293"}}, "geometry": {"type": "Point", "coordinates": [-109.7299819638832, 64.8479761910428]}}, {"type": "Feature", "properties": {"norad_id": 66653, "name": "2025-274D", "group": "last-30-days", "lat": 65.09494978768012, "lon": -109.92583656407783, "alt_km": 592.3007868139084, "timestamp": "2025-12-05T18:53:12.098260+00:00", "meta": {"OBJECT_NAME": "2025-274D", "OBJECT_ID": "2025-274D", "EPOCH": "2025-12-05T07:19:20.633952", "MEAN_MOTION": 14.91849081, "ECCENTRICITY": 0.00112727, "INCLINATION": 97.7388, "RA_OF_ASC_NODE": 266.6323, "ARG_OF_PERICENTER": 282.2972, "MEAN_ANOMALY": 77.6985, "EPHEMERIS_TYPE": 0, "CLASSIFICATION_TYPE": "U", "NORAD_CAT_ID": 66653, "ELEMENT_SET_NO": 999, "REV_AT_EPOCH": 129, "BSTAR": 0.00042671241, "MEAN_MOTION_DOT": 4.259e-05, "MEAN_MOTION_DDOT": 0}, "tle": {"line1": "1 66653U 25274D   25339.30509993  .00004259  00000+0  42671-3 0  9998", "line2": "2 66653  97.7388 266.6323 0011272 282.2972  77.6985 14.91849081  1292"}}, "geometry": {"type": "Point", "coordinates": [-109.92583656407783, 65.09494978768012]}}]}